[{"OBJECT_NAME":"OBJECT A","OBJECT_ID":"2025-310A","EPOCH":"2026-02-21T15:01:11.724096","MEAN_MOTION":14.75718788,"ECCENTRICITY":0.00037722,"INCLINATION":97.9674,"RA_OF_ASC_NODE":61.5806,"ARG_OF_PERICENTER":90.9436,"MEAN_ANOMALY":269.2206,"EPHEMERIS_TYPE":0,"CLASSIFICATION_TYPE":"U","NORAD_CAT_ID":67234,"ELEMENT_SET_NO":999,"REV_AT_EPOCH":858,"BSTAR":9.699469e-6,"MEAN_MOTION_DOT":1.6e-7,"MEAN_MOTION_DDOT":0},{"OBJECT_NAME":"NCUBE-2","OBJECT_ID":"2005-043H","EPOCH":"2026-03-09T21:58:04.865376","MEAN_MOTION":14.73594959,"ECCENTRICITY":0.00142006,"INCLINATION":98.28,"RA_OF_ASC_NODE":224.6581,"ARG_OF_PERICENTER":142.4002,"MEAN_ANOMALY":8.8891,"EPHEMERIS_TYPE":0,"CLASSIFICATION_TYPE":"U","NORAD_CAT_ID":28897,"ELEMENT_SET_NO":999,"REV_AT_EPOCH":7968,"BSTAR":0.0004424913,"MEAN_MOTION_DOT":2.833e-5,"MEAN_MOTION_DDOT":0}]
